# From MPC106342
C/1995 O1 (Hale-Bopp),e,89.1400,283.0431,130.4502,177.7195,0.0004160,0.99496403,0.0000,03/29.7333/1997,2000,g -2.0,4.0
# From MPC 27287
C/1996 B2 (Hyakutake),e,125.6293,186.7884,129.3907,1523,0.0000166,0.99985073,0.0000,04/20.1903/1996,2000,g 10.0,4.0
# From NK 1615
P/1996 R2 (Lagerkvist),e,2.6007,40.0140,333.3462,3.774895,0.1343837,0.31437570,138.6623,12/10.0/2021,2000,g 11.5,4.0
# From MPC 30063
P/1997 B1 (Kobayashi),e,12.3394,328.8819,183.3212,8.581402,0.0392073,0.76039157,355.7375,12/10.0/2021,2000,g 15.0,2.0
# From MPC 75703
P/1998 VS24 (LINEAR),e,5.0265,159.0385,244.6048,4.527185,0.1023203,0.24261312,145.4327,12/10.0/2021,2000,g 13.0,2.0
# From NK 731
P/1999 RO28 (LONEOS),e,7.5671,137.8845,231.2690,3.426663,0.1553807,0.67237480,139.4596,12/10.0/2021,2000,g 20.0,2.0
# From MPC 75704
P/1999 XN120 (Catalina),e,5.0297,285.2962,161.7725,4.178935,0.1153734,0.21025490,189.7871,12/10.0/2021,2000,g 13.5,2.0
# From NK 744
P/2000 R2 (LINEAR),e,11.6871,160.2856,176.5604,3.467095,0.1526706,0.53159036,138.3734,12/10.0/2021,2000,g 18.0,4.0
# From MPC 43019
P/2001 H5 (NEAT),e,8.3670,328.6842,224.8155,6.097179,0.0654652,0.59827400,147.0420,12/10.0/2021,2000,g 12.0,4.0
# From MPC 75704
P/2001 Q6 (NEAT),e,56.9109,22.1728,42.9297,7.955197,0.0439266,0.82311543,324.3927,12/10.0/2021,2000,g 13.5,4.0
# From MPC 47727
P/2002 EJ57 (LINEAR),e,4.9764,330.3230,167.3328,6.467807,0.0599195,0.59230682,76.1774,12/10.0/2021,2000,g 12.5,4.0
# From MPEC 2021-W31
C/2002 O4 (Hoenig),h,09/30.3102/2002,73.1861,322.0473,105.4059,1.000256,0.761989,2000,9.5,4.0
# From MPC109588
P/2002 T6 (NEAT-LINEAR),e,10.8419,206.1745,219.6602,7.697938,0.0461469,0.56124317,315.9588,12/10.0/2021,2000,g 10.5,4.0
# From MPC 75007
C/2002 VQ94 (LINEAR),e,70.6433,35.0899,100.0763,184.6211,0.0003929,0.96304209,2.2769,12/10.0/2021,2000,g  9.5,2.0
# From MPC 50354
P/2003 F2 (NEAT),e,11.6078,359.0133,192.1969,6.502176,0.0594451,0.54199150,45.0794,12/10.0/2021,2000,g 16.5,2.0
# From MPC 50139
P/2003 QX29 (NEAT),e,11.3908,264.5483,37.5632,8.023125,0.0433699,0.47289265,302.1100,12/10.0/2021,2000,g  8.5,4.0
# From MPC105235
P/2003 T12 (SOHO),e,11.0213,174.5814,219.7479,2.585803,0.2370342,0.76990072,137.9582,12/10.0/2021,2000,g 17.0,4.0
# From MPC 82312
P/2004 A1 (LONEOS),e,10.5517,124.8521,21.2066,7.964953,0.0438459,0.30946084,278.1337,12/10.0/2021,2000,g  6.5,4.0
# From MPC 54558
P/2004 DO29 (Spacewatch-LINEAR),e,14.5324,147.3723,40.6120,7.288845,0.0500860,0.44110308,314.5545,12/10.0/2021,2000,g 13.5,2.0
# From MPC 54823
P/2004 FY140 (LINEAR),e,2.1348,326.7671,242.3048,4.904707,0.0907370,0.16800859,211.7863,12/10.0/2021,2000,g 12.5,2.0
# From MPC 53304
P/2004 R3 (LINEAR-NEAT),e,12.7882,305.4068,37.8757,4.779228,0.0943338,0.25779539,7.4190,12/10.0/2021,2000,g 14.5,4.0
# From MPC 55521
P/2004 V3 (Siding Spring),e,50.4432,356.1282,322.4047,7.136730,0.0516958,0.44622946,323.1658,12/10.0/2021,2000,g 11.5,4.0
# From MPC 75705
P/2004 V5 (LINEAR-Hill),e,19.3402,47.7903,87.6445,7.982940,0.0436978,0.44386791,269.2823,12/10.0/2021,2000,g  8.0,4.0
# From MPC 54164
P/2005 E1 (Tubbiolo),e,4.2637,335.5689,193.9897,7.043909,0.0527210,0.37521902,325.3036,12/10.0/2021,2000,g 10.0,4.0
# From MPC 54823
P/2005 GF8 (LONEOS),e,1.1861,314.6135,284.5773,5.811646,0.0703486,0.51707637,56.6256,12/10.0/2021,2000,g 11.5,4.0
# From MPC 79019
P/2005 J1 (McNaught),e,31.7533,268.8198,338.9566,3.570997,0.1460561,0.56936306,168.6668,12/10.0/2021,2000,g 16.5,4.0
# From MPC 74246
P/2005 L1 (McNaught),e,7.7385,138.2483,149.7491,3.977825,0.1242326,0.20996837,4.6154,12/10.0/2021,2000,g  9.5,4.0
# From MPC 75706
P/2005 S2 (Skiff),e,3.1357,161.2180,229.2297,8.011533,0.0434641,0.19789762,247.2694,12/10.0/2021,2000,g  7.5,4.0
# From MPC 75706
P/2005 SB216 (LONEOS),e,24.0979,1.1573,83.3202,7.136666,0.0516965,0.46404949,282.4994,12/10.0/2021,2000,g 12.0,2.0
# From MPEC 2021-W47
P/2005 T2 (Christensen),e,8.2890,260.1568,58.9240,3.846463,0.1306507,0.41584845,80.1701,12/10.0/2021,2000,g 14.5,4.0
# From MPC 73461
P/2005 T3 (Read),e,6.2236,27.7001,6.7284,7.585261,0.0471789,0.17481922,279.3005,12/10.0/2021,2000,g  9.0,4.0
# From MPC 73461
P/2005 T4 (SWAN),e,160.2375,25.8268,41.7343,9.360947,0.0344131,0.92970880,203.4560,12/10.0/2021,2000,g 15.0,4.0
# From MPC 75706
P/2005 T5 (Broughton),e,21.3685,56.9997,304.6133,7.286536,0.0501098,0.55252337,295.7520,12/10.0/2021,2000,g 11.0,4.0
# From MPC 75706
P/2005 Y2 (McNaught),e,19.0459,94.3023,193.8101,6.362644,0.0614112,0.46937302,25.6357,12/10.0/2021,2000,g  9.0,4.0
# From MPC 56954
P/2006 F4 (Spacewatch),e,12.4391,183.8233,30.7891,3.517749,0.1493849,0.34101296,128.5439,12/10.0/2021,2000,g 15.0,4.0
# From MPC 75707
P/2006 HR30 (Siding Spring),e,31.8375,309.8839,117.3118,7.810603,0.0451520,0.84261201,247.2770,12/10.0/2021,2000,g 11.0,4.0
# From MPC 75707
P/2007 A2 (Christensen),e,26.4874,300.9100,186.7129,6.331678,0.0618623,0.55799467,338.0935,12/10.0/2021,2000,g 13.5,4.0
# From MPC 75707
P/2007 C2 (Catalina),e,8.6217,275.4231,180.1111,6.993570,0.0532912,0.47142501,276.5570,12/10.0/2021,2000,g 10.0,4.0
# From MPC 84315
C/2007 D1 (LINEAR),e,41.5017,171.2281,339.9300,1306,0.0000209,0.99325197,0.0000,06/07.5646/2007,2000,g  3.5,4.0
# From MPC 82314
P/2007 K2 (Gibbs),e,7.6292,188.6379,347.4054,7.269107,0.0502901,0.68296039,267.1045,12/10.0/2021,2000,g 14.0,4.0
# From MPC 60925
P/2007 Q2 (Gilmore),e,10.2026,172.1564,162.8028,5.654267,0.0733060,0.67012538,27.7103,12/10.0/2021,2000,g 16.0,4.0
# From MPC 73462
P/2007 S1 (Zhao),e,5.9641,141.3701,245.4208,3.820823,0.1319680,0.33972295,320.1988,12/10.0/2021,2000,g 13.0,4.0
# From MPC 61994
P/2007 T2 (Kowalski),e,9.7513,3.3762,359.6464,3.046504,0.1853538,0.78555589,228.8502,12/10.0/2021,2000,g 18.5,4.0
# From MPC 75709
P/2008 L2 (Hill),e,25.8666,218.0138,141.2435,6.027575,0.0666024,0.61332212,325.5623,12/10.0/2021,2000,g 12.5,4.0
# From MPC 64114
P/2008 O3 (Boattini),e,32.2975,47.5756,341.1239,8.218938,0.0418293,0.69588481,206.8398,12/10.0/2021,2000,g 13.0,4.0
# From MPEC 2021-X81
P/2008 WZ96 (LINEAR),e,7.1144,56.4186,341.9867,3.487117,0.1513576,0.46943063,16.0313,12/10.0/2021,2000,g 17.2,4.0
# From MPC 75710
P/2008 Y3 (McNaught),e,38.7718,262.8222,238.1382,8.047564,0.0431725,0.44550101,204.5980,12/10.0/2021,2000,g  8.5,4.0
# From MPC 75710
P/2009 B1 (Boattini),e,22.2247,297.0845,128.8778,6.737440,0.0563588,0.63514926,266.1847,12/10.0/2021,2000,g 13.0,4.0
# From MPC 66466
C/2009 G1 (STEREO),e,108.6696,120.4749,175.4608,449.9537,0.0001033,0.99746974,0.0000,04/16.8671/2009,2000,g  9.0,4.0
# From MPC 75710
P/2009 O3 (Hill),e,16.2824,183.6918,154.4525,7.768040,0.0455236,0.68787271,208.5671,12/10.0/2021,2000,g 12.5,4.0
# From MPC 68902
P/2009 Q5 (McNaught),e,40.9888,160.2802,209.0517,7.433527,0.0486308,0.60943963,217.6502,12/10.0/2021,2000,g 10.0,4.0
# From MPC112389
P/2009 T2 (La Sagra),e,27.5827,215.8546,216.3526,7.721615,0.0459348,0.76577204,200.5136,12/10.0/2021,2000,g 14.0,4.0
# From MPC105235
P/2009 WX51 (Catalina),e,9.5935,31.6311,118.1740,3.082127,0.1821496,0.74002063,70.8046,12/10.0/2021,2000,g 19.0,2.0
# From MPC 74247
P/2009 Y2 (Kowalski),e,29.9439,262.0303,172.1340,6.550216,0.0587923,0.63630551,253.0366,12/10.0/2021,2000,g 13.0,4.0
# From MPC 75711
P/2010 A3 (Hill),e,14.8251,63.7573,42.2043,6.081303,0.0657218,0.73358528,281.9012,12/10.0/2021,2000,g 14.0,4.0
# From MPC 75008
P/2010 C1 (Scotti),e,9.1282,141.8864,3.5622,7.103966,0.0520538,0.25923914,229.8137,12/10.0/2021,2000,g  9.5,4.0
# From MPC 75008
P/2010 D2 (WISE),e,57.0886,319.8888,119.9928,6.718515,0.0565971,0.45117661,244.5849,12/10.0/2021,2000,g 16.0,4.0
# From MPC 75009
P/2010 E2 (Jarnac),e,15.3889,177.8215,8.3431,8.639853,0.0388101,0.71961182,165.8738,12/10.0/2021,2000,g 14.0,4.0
# From MPC 72851
P/2010 H2 (Vales),e,14.2756,64.1921,128.0554,3.833051,0.1313370,0.19608680,204.0794,12/10.0/2021,2000,g  6.0,4.0
# From MPC 70361
P/2010 H3 (SOHO),e,23.0645,77.0848,26.1607,3.037059,0.1862191,0.98535621,0.0000,02/07.9401/2021,2000,g 20.0,2.0
# From MPC 73463
P/2010 H4 (Scotti),e,2.3180,44.7328,179.4684,6.594947,0.0581952,0.26667066,244.2364,12/10.0/2021,2000,g 10.5,4.0
# From MPC 74637
P/2010 H5 (Scotti),e,14.0598,24.7997,175.0302,7.165793,0.0513816,0.15279133,219.6031,12/10.0/2021,2000,g 13.0,2.0
# From MPC 98558
P/2010 J3 (McMillan),e,13.2793,106.4350,157.5991,8.975952,0.0366508,0.72639630,151.0572,12/10.0/2021,2000,g 11.0,4.0
# From MPC 84315
P/2010 JC81 (WISE),e,38.7844,30.8570,12.4239,8.107985,0.0426908,0.77739280,165.8721,12/10.0/2021,2000,g  9.0,4.0
# From MPC 74248
P/2010 T2 (PANSTARRS),e,7.8894,58.7449,353.1066,5.543519,0.0755137,0.32194468,297.2356,12/10.0/2021,2000,g 11.5,4.0
# From MPC 98558
P/2010 TO20 (LINEAR-Grauer),e,2.4788,43.2903,267.0573,5.831728,0.0699855,0.05533258,335.6523,12/10.0/2021,2000,g  9.0,4.0
# From MPC 82316
P/2010 U1 (Boattini),e,8.2167,280.6968,86.0670,6.506620,0.0593842,0.24879391,257.2687,12/10.0/2021,2000,g  9.5,4.0
# From MPEC 2021-R75
C/2010 U3 (Boattini),e,55.5384,43.0086,88.0430,2406,0.0000084,0.99649072,0.0000,02/25.2243/2019,2000,g  1.0,4.0
# From MPC 79021
P/2010 UH55 (Spacewatch),e,8.0397,232.9266,225.1572,6.653838,0.0574243,0.56342359,223.9231,12/10.0/2021,2000,g 11.0,4.0
# From MPC 75009
P/2010 WK (LINEAR),e,11.4015,11.3313,40.9662,5.761975,0.0712602,0.69019547,291.9679,12/10.0/2021,2000,g 14.5,2.0
# From MPC 84021
P/2011 C2 (Gibbs),e,10.8855,12.1231,160.7648,7.413258,0.0488304,0.26891133,177.6061,12/10.0/2021,2000,g  9.0,4.0
# From MPC 79866
P/2011 FR143 (Lemmon),e,15.9775,190.9501,350.0356,6.860748,0.0548462,0.45051280,216.1842,12/10.0/2021,2000,g 14.0,2.0
# From MPC 82317
P/2011 JB15 (Spacewatch-Boattini),e,19.1477,153.5801,111.0731,7.360596,0.0493554,0.31697348,178.1990,12/10.0/2021,2000,g  9.0,4.0
# From MPC 87913
P/2011 N1 (ASH),e,35.7403,77.5866,330.3482,6.247357,0.0631189,0.54445099,220.3419,12/10.0/2021,2000,g 11.5,4.0
# From MPC 75714
P/2011 NO1 (Elenin),e,15.2466,295.8139,263.7540,5.527224,0.0758479,0.77454737,301.8147,12/10.0/2021,2000,g 15.0,4.0
# From MPC 82318
